{
  "norad_id": 65080,
  "name": "STARLINK-34267",
  "history": [
    {
      "epoch": "2026-03-28T20:07:14.583936Z",
      "apogee_km": 475.85557170147695,
      "perigee_km": 474.53822385964577,
      "latitude_deg": -1.3268141549775064e-05,
      "longitude_deg": 167.4253592966274,
      "height_km": 475.73839892605827,
      "semi_major_axis_km": 6853.333897780561,
      "eccentricity": 9.611e-05,
      "inclination_deg": 53.1606,
      "raan_deg": 295.4892,
      "arg_perigee_deg": 57.1524,
      "mean_anomaly_deg": 302.9569,
      "mean_motion_rev_day": 15.30206086
    }
  ]
}