{"fetched_at":"2026-03-29T16:36:15Z","count":15609,"tles":[{"name":"STARLINK-34267","line1":"1 65080U 25167C   26087.83836324  .00024499  00000+0  83642-3 0  9993","line2":"2 65080  53.1606 295.4892 0000961  57.1524 302.9569 15.30206086 37668","category":"Starlink"}]}